NORAD_CAT_ID,OBJECT_NAME,OBJECT_TYPE,EPOCH,MEAN_MOTION,ECCENTRICITY,INCLINATION,RA_OF_ASC_NODE,ARG_OF_PERICENTER,MEAN_ANOMALY,BSTAR,MEAN_MOTION_DOT,MEAN_MOTION_DDOT,TLE_LINE0,TLE_LINE1,TLE_LINE2,SEMIMAJOR_AXIS,PERIOD,APOGEE,PERIGEE,DECAYED
52353.0,STARLINK-3807,PAYLOAD,2024-07-20 14:30:38,15.08831821,0.0001494,53.2199,359.5461,111.9574,248.1577,-2.9137e-05,-7.52e-06,0.0,0 STARLINK-3807,1 52353U 22045Y   24202.60460862 -.00000752  00000-0 -29137-4 0  9995,2 52353  53.2199 359.5461 0001494 111.9574 248.1577 15.08831821125647,6917.905,95.438,540.804,538.737,0.0
52353.0,STARLINK-3807,PAYLOAD,2024-07-20 17:41:24,15.0883481,0.0001518,53.2201,358.9533,113.8336,246.2815,1.7458e-05,-1e-07,0.0,0 STARLINK-3807,1 52353U 22045Y   24202.73708816 -.00000010  00000-0  17458-4 0  9992,2 52353  53.2201 358.9533 0001518 113.8336 246.2815 15.08834810125665,6917.896,95.438,540.811,538.711,0.0
52353.0,STARLINK-3807,PAYLOAD,2024-07-21 03:13:42,15.08855796,0.0001038,53.218,357.161,81.5269,278.584,0.0003004,4.498e-05,0.0,0 STARLINK-3807,1 52353U 22045Y   24203.13451676  .00004498  00000-0  30040-3 0  9990,2 52353  53.2180 357.1610 0001038  81.5269 278.5840 15.08855796125720,6917.832,95.437,540.415,538.979,0.0
52353.0,STARLINK-3807,PAYLOAD,2024-07-21 09:35:15,15.08841256,0.0001931,53.2179,355.9748,87.0731,273.0482,0.00021002,3.056e-05,0.0,0 STARLINK-3807,1 52353U 22045Y   24203.39948687  .00003056  00000-0  21002-3 0  9998,2 52353  53.2179 355.9748 0001931  87.0731 273.0482 15.08841256125765,6917.877,95.437,541.077,538.406,0.0
52353.0,STARLINK-3807,PAYLOAD,2024-07-21 14:21:25,15.08832299,0.0001307,53.2178,355.0835,102.2149,257.8989,7.8659e-05,9.64e-06,0.0,0 STARLINK-3807,1 52353U 22045Y   24203.59821041  .00000964  00000-0  78659-4 0  9990,2 52353  53.2178 355.0835 0001307 102.2149 257.8989 15.08832299125794,6917.904,95.438,540.673,538.865,0.0
52353.0,STARLINK-3807,PAYLOAD,2024-07-21 17:32:11,15.08839085,0.0001309,53.2188,354.4883,89.6583,270.4559,0.00017804,2.547e-05,0.0,0 STARLINK-3807,1 52353U 22045Y   24203.73068776  .00002547  00000-0  17804-3 0  9997,2 52353  53.2188 354.4883 0001309  89.6583 270.4559 15.08839085125810,6917.883,95.438,540.654,538.843,0.0
52353.0,STARLINK-3807,PAYLOAD,2024-07-22 09:26:03,15.08838017,0.0001489,53.2182,351.5138,74.561,285.5547,0.00017754,2.539e-05,0.0,0 STARLINK-3807,1 52353U 22045Y   24204.39309155  .00002539  00000-0  17754-3 0  9994,2 52353  53.2182 351.5138 0001489  74.5610 285.5547 15.08838017125917,6917.886,95.438,540.782,538.721,0.0
52353.0,STARLINK-3807,PAYLOAD,2024-07-23 09:16:50,15.0883098,0.0001123,53.2178,347.0546,80.6864,279.4255,-9.6779e-06,-4.42e-06,0.0,0 STARLINK-3807,1 52353U 22045Y   24205.38669261 -.00000442  00000-0 -96779-5 0  9990,2 52353  53.2178 347.0546 0001123  80.6864 279.4255 15.08830980126065,6917.908,95.438,540.55,538.996,0.0
52353.0,STARLINK-3807,PAYLOAD,2024-07-23 15:38:22,15.08833906,0.0001118,53.2179,345.8654,80.988,279.1238,3.5822e-05,2.82e-06,0.0,0 STARLINK-3807,1 52353U 22045Y   24205.65165262  .00000282  00000-0  35822-4 0  9993,2 52353  53.2179 345.8654 0001118  80.9880 279.1238 15.08833906126101,6917.899,95.438,540.537,538.991,0.0
52353.0,STARLINK-3807,PAYLOAD,2024-07-24 09:07:36,15.08851227,0.0002956,53.2127,342.5927,95.8386,264.2943,-0.00045577,-7.538e-05,0.0,0 STARLINK-3807,1 52353U 22045Y   24206.38028506 -.00007538  00000-0 -45577-3 0  9993,2 52353  53.2127 342.5927 0002956  95.8386 264.2943 15.08851227126214,6917.846,95.437,541.756,537.666,0.0
52353.0,STARLINK-3807,PAYLOAD,2024-07-24 18:39:55,15.08844485,0.0001367,53.2175,340.812,66.9948,293.1189,-5.4647e-05,-1.158e-05,0.0,0 STARLINK-3807,1 52353U 22045Y   24206.77773135 -.00001158  00000-0 -54647-4 0  9992,2 52353  53.2175 340.8120 0001367  66.9948 293.1189 15.08844485126278,6917.867,95.437,540.677,538.786,0.0
52353.0,STARLINK-3807,PAYLOAD,2024-07-25 18:30:43,15.08842684,0.0001266,53.2169,336.3475,84.8961,275.2176,0.00025358,3.75e-05,0.0,0 STARLINK-3807,1 52353U 22045Y   24207.77133663  .00003750  00000-0  25358-3 0  9993,2 52353  53.2169 336.3475 0001266  84.8961 275.2176 15.08842684126429,6917.872,95.437,540.613,538.861,0.0
52353.0,STARLINK-3807,PAYLOAD,2024-07-26 08:49:11,15.08847248,0.000133,53.2166,333.6712,88.4857,271.6287,0.00025749,3.813e-05,0.0,0 STARLINK-3807,1 52353U 22045Y   24208.36749342  .00003813  00000-0  25749-3 0  9990,2 52353  53.2166 333.6712 0001330  88.4857 271.6287 15.08847248126510,6917.858,95.437,540.643,538.803,0.0
52353.0,STARLINK-3807,PAYLOAD,2024-07-26 19:56:52,15.08865395,0.0001101,53.217,331.5905,89.9743,270.1375,0.00051277,7.888e-05,0.0,0 STARLINK-3807,1 52353U 22045Y   24208.83116345  .00007888  00000-0  51277-3 0  9994,2 52353  53.2170 331.5905 0001101  89.9743 270.1375 15.08865395126584,6917.803,95.436,540.429,538.906,0.0
52353.0,STARLINK-3807,PAYLOAD,2024-07-27 19:47:40,15.08835019,0.0001573,53.2182,327.1293,85.0314,275.0858,-5.1108e-05,-1.101e-05,0.0,0 STARLINK-3807,1 52353U 22045Y   24209.82477829 -.00001101  00000-0 -51108-4 0  9999,2 52353  53.2182 327.1293 0001573  85.0314 275.0858 15.08835019126739,6917.896,95.438,540.849,538.672,0.0
52353.0,STARLINK-3807,PAYLOAD,2024-07-28 00:33:50,15.08840295,0.0001459,53.2181,326.2372,89.4264,270.6895,6.6572e-05,7.72e-06,0.0,0 STARLINK-3807,1 52353U 22045Y   24210.02349663  .00000772  00000-0  66572-4 0  9999,2 52353  53.2181 326.2372 0001459  89.4264 270.6895 15.08840295126768,6917.879,95.438,540.754,538.735,0.0
52353.0,STARLINK-3807,PAYLOAD,2024-07-28 13:16:55,15.08831471,0.0001534,53.2171,323.8602,93.3748,266.742,-3.5971e-05,-8.6e-06,0.0,0 STARLINK-3807,1 52353U 22045Y   24210.55342292 -.00000860  00000-0 -35971-4 0  9997,2 52353  53.2171 323.8602 0001534  93.3748 266.7420 15.08831471126846,6917.906,95.438,540.833,538.71,0.0
52353.0,STARLINK-3807,PAYLOAD,2024-07-28 18:03:04,15.08841064,0.0001345,53.2191,322.9679,86.5867,273.5279,0.00016227,2.296e-05,0.0,0 STARLINK-3807,1 52353U 22045Y   24210.75213908  .00002296  00000-0  16227-3 0  9995,2 52353  53.2191 322.9679 0001345  86.5867 273.5279 15.08841064126878,6917.877,95.437,540.673,538.812,0.0
52353.0,STARLINK-3807,PAYLOAD,2024-07-29 00:24:36,15.08850989,0.0001311,53.2179,321.7783,89.361,270.7533,0.0003778,5.732e-05,0.0,0 STARLINK-3807,1 52353U 22045Y   24211.01709172  .00005732  00000-0  37780-3 0  9993,2 52353  53.2179 321.7783 0001311  89.3610 270.7533 15.08850989126910,6917.847,95.437,540.619,538.805,0.0
52353.0,STARLINK-3807,PAYLOAD,2024-07-29 19:29:14,15.08849445,0.0001462,53.2149,318.2101,86.1747,273.9412,0.00021733,3.173e-05,0.0,0 STARLINK-3807,1 52353U 22045Y   24211.81197423  .00003173  00000-0  21733-3 0  9999,2 52353  53.2149 318.2101 0001462  86.1747 273.9412 15.08849445127035,6917.852,95.437,540.728,538.705,0.0
52353.0,STARLINK-3807,PAYLOAD,2024-07-30 00:15:23,15.08849199,0.000144,53.2152,317.3175,88.5163,271.5995,0.00017954,2.571e-05,0.0,0 STARLINK-3807,1 52353U 22045Y   24212.01069292  .00002571  00000-0  17954-3 0  9995,2 52353  53.2152 317.3175 0001440  88.5163 271.5995 15.08849199127063,6917.852,95.437,540.713,538.721,0.0
52353.0,STARLINK-3807,PAYLOAD,2024-07-31 12:49:15,15.0886535,0.0001327,53.2164,310.4728,93.7003,266.414,-0.00036688,-6.126e-05,0.0,0 STARLINK-3807,1 52353U 22045Y   24213.53420373 -.00006126  00000-0 -36688-3 0  9991,2 52353  53.2164 310.4728 0001327  93.7003 266.4140 15.08865350127296,6917.803,95.436,540.586,538.75,0.0
52353.0,STARLINK-3807,PAYLOAD,2024-07-31 16:00:01,15.08852196,0.0001353,53.2173,309.8791,88.6833,271.4314,0.00018639,2.681e-05,0.0,0 STARLINK-3807,1 52353U 22045Y   24213.66668692  .00002681  00000-0  18639-3 0  9999,2 52353  53.2173 309.8791 0001353  88.6833 271.4314 15.08852196127317,6917.843,95.437,540.644,538.772,0.0
52353.0,STARLINK-3807,PAYLOAD,2024-08-01 11:04:39,15.08839486,0.0001506,53.2162,306.3097,105.5034,254.6124,4.7328e-05,4.65e-06,0.0,0 STARLINK-3807,1 52353U 22045Y   24214.46157128  .00000465  00000-0  47328-4 0  9991,2 52353  53.2162 306.3097 0001506 105.5034 254.6124 15.08839486127430,6917.882,95.438,540.789,538.705,0.0
52353.0,STARLINK-3807,PAYLOAD,2024-08-02 12:30:50,15.08828549,0.000143,53.217,301.5543,103.948,256.1671,-0.00018752,-3.27e-05,0.0,0 STARLINK-3807,1 52353U 22045Y   24215.52142170 -.00003270  00000-0 -18752-3 0  9997,2 52353  53.2170 301.5543 0001430 103.9480 256.1671 15.08828549127594,6917.915,95.438,540.77,538.791,0.0
52353.0,STARLINK-3807,PAYLOAD,2024-08-02 15:41:37,15.08833068,0.0001191,53.2165,300.9629,79.609,280.5037,-8.448e-05,-1.632e-05,0.0,0 STARLINK-3807,1 52353U 22045Y   24215.65390541 -.00001632  00000-0 -84480-4 0  9990,2 52353  53.2165 300.9629 0001191  79.6090 280.5037 15.08833068127618,6917.902,95.438,540.59,538.943,0.0
52353.0,STARLINK-3807,PAYLOAD,2024-08-03 12:21:37,15.08840567,0.0001186,53.2151,297.0971,89.8734,270.2394,0.00030255,4.531e-05,0.0,0 STARLINK-3807,1 52353U 22045Y   24216.51502289  .00004531  00000-0  30255-3 0  9999,2 52353  53.2151 297.0971 0001186  89.8734 270.2394 15.08840567127749,6917.879,95.438,540.564,538.923,0.0
52353.0,STARLINK-3807,PAYLOAD,2024-08-03 21:53:56,15.08857175,0.0001375,53.2167,295.3142,97.24,262.8749,0.00047347,7.259e-05,0.0,0 STARLINK-3807,1 52353U 22045Y   24216.91245376  .00007259  00000-0  47347-3 0  9994,2 52353  53.2167 295.3142 0001375  97.2400 262.8749 15.08857175127801,6917.828,95.436,540.644,538.742,0.0
52353.0,STARLINK-3807,PAYLOAD,2024-08-04 12:12:25,15.08837074,0.0001472,53.2168,292.6405,91.5948,268.5213,0.0001638,2.32e-05,0.0,0 STARLINK-3807,1 52353U 22045Y   24217.50862688  .00002320  00000-0  16380-3 0  9998,2 52353  53.2168 292.6405 0001472  91.5948 268.5213 15.08837074127890,6917.889,95.438,540.773,538.736,0.0
52353.0,STARLINK-3807,PAYLOAD,2024-08-04 21:44:43,15.08865082,0.0001763,53.2183,290.8548,97.254,262.8652,0.00055754,8.602e-05,0.0,0 STARLINK-3807,1 52353U 22045Y   24217.90605549  .00008602  00000-0  55754-3 0  9990,2 52353  53.2183 290.8548 0001763  97.2540 262.8652 15.08865082127950,6917.804,95.436,540.888,538.449,0.0
